[{"OBJECT_NAME":"STARLINK-5570","OBJECT_ID":"2023-014AU","EPOCH":"2026-03-09T12:07:30.730656","MEAN_MOTION":14.98318176,"ECCENTRICITY":0.00031327,"INCLINATION":69.9992,"RA_OF_ASC_NODE":104.8203,"ARG_OF_PERICENTER":269.6971,"MEAN_ANOMALY":90.3829,"EPHEMERIS_TYPE":0,"CLASSIFICATION_TYPE":"U","NORAD_CAT_ID":55433,"ELEMENT_SET_NO":999,"REV_AT_EPOCH":17104,"BSTAR":0.0001441198,"MEAN_MOTION_DOT":1.626e-5,"MEAN_MOTION_DDOT":0},{"OBJECT_NAME":"OV1-10 R\/B","OBJECT_ID":"1966-111C","EPOCH":"2026-03-09T17:10:30.494208","MEAN_MOTION":14.85448079,"ECCENTRICITY":0.00582808,"INCLINATION":93.4003,"RA_OF_ASC_NODE":162.682,"ARG_OF_PERICENTER":65.7943,"MEAN_ANOMALY":294.9357,"EPHEMERIS_TYPE":0,"CLASSIFICATION_TYPE":"U","NORAD_CAT_ID":2621,"ELEMENT_SET_NO":999,"REV_AT_EPOCH":15959,"BSTAR":0.00014045213,"MEAN_MOTION_DOT":1.241e-5,"MEAN_MOTION_DDOT":0}]
